{
    "links": {
        "self": "http://www.neowsapp.com/rest/v1/neo/54051187?api_key=iIulBulltgU6a56xZRHN4H3l9WmuAYTsLGpBGhQ2"
    },
    "id": "54051187",
    "neo_reference_id": "54051187",
    "name": "(2020 QP1)",
    "designation": "2020 QP1",
    "nasa_jpl_url": "http://ssd.jpl.nasa.gov/sbdb.cgi?sstr=54051187",
    "absolute_magnitude_h": 26.206,
    "estimated_diameter": {
        "kilometers": {
            "estimated_diameter_min": 0.0152529897,
            "estimated_diameter_max": 0.0341067218
        },
        "meters": {
            "estimated_diameter_min": 15.2529896865,
            "estimated_diameter_max": 34.1067217991
        },
        "miles": {
            "estimated_diameter_min": 0.0094777655,
            "estimated_diameter_max": 0.0211929278
        },
        "feet": {
            "estimated_diameter_min": 50.042618683,
            "estimated_diameter_max": 111.8986971474
        }
    },
    "is_potentially_hazardous_asteroid": false,
    "close_approach_data": [
        {
            "close_approach_date": "2020-08-25",
            "close_approach_date_full": "2020-Aug-25 12:07",
            "epoch_date_close_approach": 1598357220000,
            "relative_velocity": {
                "kilometers_per_second": "8.7472647542",
                "kilometers_per_hour": "31490.1531151884",
                "miles_per_hour": "19566.7565287125"
            },
            "miss_distance": {
                "astronomical": "0.0502554533",
                "lunar": "19.5493713337",
                "kilometers": "7518108.769564471",
                "miles": "4671536.1673968598"
            },
            "orbiting_body": "Earth"
        }
    ],
    "orbital_data": {
        "orbit_id": "3",
        "orbit_determination_date": "2020-08-24 07:19:44",
        "first_observation_date": "2020-08-18",
        "last_observation_date": "2020-08-24",
        "data_arc_in_days": 6,
        "observations_used": 23,
        "orbit_uncertainty": "8",
        "minimum_orbit_intersection": ".033033",
        "jupiter_tisserand_invariant": "3.699",
        "epoch_osculation": "2459080.5",
        "eccentricity": ".492120138303435",
        "semi_major_axis": "1.97829628473319",
        "inclination": "5.372721003236549",
        "ascending_node_longitude": "324.7552504533446",
        "orbital_period": "1016.331602296547",
        "perihelion_distance": "1.004736843485121",
        "perihelion_argument": "37.70990201932371",
        "aphelion_distance": "2.95185572598126",
        "perihelion_time": "2459111.184385813730",
        "mean_anomaly": "349.1311272147969",
        "mean_motion": ".3542150998616282",
        "equinox": "J2000",
        "orbit_class": {
            "orbit_class_type": "APO",
            "orbit_class_description": "Near-Earth asteroid orbits which cross the Earth’s orbit similar to that of 1862 Apollo",
            "orbit_class_range": "a (semi-major axis) > 1.0 AU; q (perihelion) < 1.017 AU"
        }
    },
    "is_sentry_object": false
}